{
  "type": "FeatureCollection",
  "features": [
    {
      "type": "Feature",
      "properties": {
        "norad_id": 66954,
        "name": "HULIANWANG DIGUI-115",
        "group": "last-30-days",
        "lat": -27.3874070963234,
        "lon": -20.44618391595378,
        "alt_km": 1030.373902390953,
        "timestamp": "2025-12-25T22:42:15.710750+00:00",
        "meta_object_name": "HULIANWANG DIGUI-115",
        "meta_object_id": "2025-287B",
        "meta_epoch": "2025-12-24T22:10:56.489088",
        "meta_mean_motion": 13.63539042,
        "meta_eccentricity": 0.0003385,
        "meta_inclination": 86.5036,
        "meta_ra_of_asc_node": 341.7372,
        "meta_arg_of_pericenter": 109.9724,
        "meta_mean_anomaly": 250.1798,
        "meta_ephemeris_type": 0,
        "meta_classification_type": "U",
        "meta_norad_cat_id": 66954,
        "meta_element_set_no": 999,
        "meta_rev_at_epoch": 219,
        "meta_bstar": 8.442119e-06,
        "meta_mean_motion_dot": 2.3e-07,
        "meta_mean_motion_ddot": 0,
        "tle_line1": "1 66954U 25287B   25358.92426492  .00000023  00000+0  84421-5 0  9993",
        "tle_line2": "2 66954  86.5036 341.7372 0003385 109.9724 250.1798 13.63539042  2198"
      },
      "geometry": {
        "type": "Point",
        "coordinates": [
          -20.44618391595378,
          -27.3874070963234
        ]
      }
    },
    {
      "type": "Feature",
      "properties": {
        "norad_id": 66955,
        "name": "HULIANWANG DIGUI-116",
        "group": "last-30-days",
        "lat": -12.63618416750992,
        "lon": -19.446711112333627,
        "alt_km": 1025.2282576148482,
        "timestamp": "2025-12-25T22:42:15.710761+00:00",
        "meta_object_name": "HULIANWANG DIGUI-116",
        "meta_object_id": "2025-287C",
        "meta_epoch": "2025-12-24T23:52:55.515936",
        "meta_mean_motion": 13.64194122,
        "meta_eccentricity": 0.00016332,
        "meta_inclination": 86.4919,
        "meta_ra_of_asc_node": 341.6856,
        "meta_arg_of_pericenter": 94.3011,
        "meta_mean_anomaly": 265.8333,
        "meta_ephemeris_type": 0,
        "meta_classification_type": "U",
        "meta_norad_cat_id": 66955,
        "meta_element_set_no": 999,
        "meta_rev_at_epoch": 220,
        "meta_bstar": 0.0001652864,
        "meta_mean_motion_dot": 1.48e-06,
        "meta_mean_motion_ddot": 0,
        "tle_line1": "1 66955U 25287C   25358.99508699  .00000148  00000+0  16529-3 0  9991",
        "tle_line2": "2 66955  86.4919 341.6856 0001633  94.3011 265.8333 13.64194122  2201"
      },
      "geometry": {
        "type": "Point",
        "coordinates": [
          -19.446711112333627,
          -12.63618416750992
        ]
      }
    },
    {
      "type": "Feature",
      "properties": {
        "norad_id": 66956,
        "name": "HULIANWANG DIGUI-117",
        "group": "last-30-days",
        "lat": 2.1065800193191033,
        "lon": -18.516797145962233,
        "alt_km": 1021.5526240801055,
        "timestamp": "2025-12-25T22:42:15.710771+00:00",
        "meta_object_name": "HULIANWANG DIGUI-117",
        "meta_object_id": "2025-287D",
        "meta_epoch": "2025-12-24T22:03:29.281824",
        "meta_mean_motion": 13.64670553,
        "meta_eccentricity": 0.00010447,
        "meta_inclination": 86.4976,
        "meta_ra_of_asc_node": 341.7257,
        "meta_arg_of_pericenter": 103.5815,
        "meta_mean_anomaly": 256.5458,
        "meta_ephemeris_type": 0,
        "meta_classification_type": "U",
        "meta_norad_cat_id": 66956,
        "meta_element_set_no": 999,
        "meta_rev_at_epoch": 219,
        "meta_bstar": 9.025962e-06,
        "meta_mean_motion_dot": 2.4e-07,
        "meta_mean_motion_ddot": 0,
        "tle_line1": "1 66956U 25287D   25358.91908891  .00000024  00000+0  90260-5 0  9991",
        "tle_line2": "2 66956  86.4976 341.7257 0001044 103.5815 256.5458 13.64670553  2192"
      },
      "geometry": {
        "type": "Point",
        "coordinates": [
          -18.516797145962233,
          2.1065800193191033
        ]
      }
    },
    {
      "type": "Feature",
      "properties": {
        "norad_id": 66957,
        "name": "HULIANWANG DIGUI-118",
        "group": "last-30-days",
        "lat": 43.22684945706222,
        "lon": -15.353897389179387,
        "alt_km": 1006.544507634323,
        "timestamp": "2025-12-25T22:42:15.710781+00:00",
        "meta_object_name": "HULIANWANG DIGUI-118",
        "meta_object_id": "2025-287E",
        "meta_epoch": "2025-12-21T00:50:13.849728",
        "meta_mean_motion": 13.6751011,
        "meta_eccentricity": 0.00054729,
        "meta_inclination": 86.4946,
        "meta_ra_of_asc_node": 343.1304,
        "meta_arg_of_pericenter": 170.9065,
        "meta_mean_anomaly": 189.2194,
        "meta_ephemeris_type": 0,
        "meta_classification_type": "U",
        "meta_norad_cat_id": 66957,
        "meta_element_set_no": 999,
        "meta_rev_at_epoch": 166,
        "meta_bstar": 0.00013223305,
        "meta_mean_motion_dot": 1.28e-06,
        "meta_mean_motion_ddot": 0,
        "tle_line1": "1 66957U 25287E   25355.03488252  .00000128  00000+0  13223-3 0  9993",
        "tle_line2": "2 66957  86.4946 343.1304 0005472 170.9065 189.2194 13.67510110  1668"
      },
      "geometry": {
        "type": "Point",
        "coordinates": [
          -15.353897389179387,
          43.22684945706222
        ]
      }
    },
    {
      "type": "Feature",
      "properties": {
        "norad_id": 66958,
        "name": "CZ-6A R/B",
        "group": "last-30-days",
        "lat": -43.979069098802704,
        "lon": 164.4595661392675,
        "alt_km": 992.1691251175525,
        "timestamp": "2025-12-25T22:42:15.710792+00:00",
        "meta_object_name": "CZ-6A R/B",
        "meta_object_id": "2025-287F",
        "meta_epoch": "2025-12-25T14:45:16.383744",
        "meta_mean_motion": 13.9492158,
        "meta_eccentricity": 0.01071075,
        "meta_inclination": 86.5065,
        "meta_ra_of_asc_node": 341.206,
        "meta_arg_of_pericenter": 63.4534,
        "meta_mean_anomaly": 297.7572,
        "meta_ephemeris_type": 0,
        "meta_classification_type": "U",
        "meta_norad_cat_id": 66958,
        "meta_element_set_no": 999,
        "meta_rev_at_epoch": 233,
        "meta_bstar": 5.5171119e-05,
        "meta_mean_motion_dot": 9.6e-07,
        "meta_mean_motion_ddot": 0,
        "tle_line1": "1 66958U 25287F   25359.61477296  .00000096  00000+0  55171-4 0  9991",
        "tle_line2": "2 66958  86.5065 341.2060 0107107  63.4534 297.7572 13.94921580  2332"
      },
      "geometry": {
        "type": "Point",
        "coordinates": [
          164.4595661392675,
          -43.979069098802704
        ]
      }
    },
    {
      "type": "Feature",
      "properties": {
        "norad_id": 66959,
        "name": "STARLINK-35887",
        "group": "last-30-days",
        "lat": -40.85565606120826,
        "lon": -25.11870430495299,
        "alt_km": 382.69788002453333,
        "timestamp": "2025-12-25T22:42:15.710802+00:00",
        "meta_object_name": "STARLINK-35887",
        "meta_object_id": "2025-288A",
        "meta_epoch": "2025-12-25T18:00:02.000160",
        "meta_mean_motion": 15.63386944,
        "meta_eccentricity": 0.0001297,
        "meta_inclination": 43.0003,
        "meta_ra_of_asc_node": 87.9052,
        "meta_arg_of_pericenter": 277.4918,
        "meta_mean_anomaly": 312.023,
        "meta_ephemeris_type": 0,
        "meta_classification_type": "U",
        "meta_norad_cat_id": 66959,
        "meta_element_set_no": 999,
        "meta_rev_at_epoch": 392,
        "meta_bstar": -0.02351,
        "meta_mean_motion_dot": -0.01963135,
        "meta_mean_motion_ddot": 0,
        "tle_line1": "1 66959U 25288A   25359.75002315 -.01963135  00000+0 -23510-1 0  9998",
        "tle_line2": "2 66959  43.0003  87.9052 0001297 277.4918 312.0230 15.63386944  3929"
      },
      "geometry": {
        "type": "Point",
        "coordinates": [
          -25.11870430495299,
          -40.85565606120826
        ]
      }
    },
    {
      "type": "Feature",
      "properties": {
        "norad_id": 66960,
        "name": "STARLINK-35879",
        "group": "last-30-days",
        "lat": -41.314855967587555,
        "lon": -22.660737775312914,
        "alt_km": 382.6705130929213,
        "timestamp": "2025-12-25T22:42:15.710811+00:00",
        "meta_object_name": "STARLINK-35879",
        "meta_object_id": "2025-288B",
        "meta_epoch": "2025-12-25T18:00:02.000160",
        "meta_mean_motion": 15.63386406,
        "meta_eccentricity": 0.0001348,
        "meta_inclination": 43.0003,
        "meta_ra_of_asc_node": 87.9004,
        "meta_arg_of_pericenter": 277.7408,
        "meta_mean_anomaly": 313.6887,
        "meta_ephemeris_type": 0,
        "meta_classification_type": "U",
        "meta_norad_cat_id": 66960,
        "meta_element_set_no": 999,
        "meta_rev_at_epoch": 392,
        "meta_bstar": -0.023464,
        "meta_mean_motion_dot": -0.01959779,
        "meta_mean_motion_ddot": 0,
        "tle_line1": "1 66960U 25288B   25359.75002315 -.01959779  00000+0 -23464-1 0  9997",
        "tle_line2": "2 66960  43.0003  87.9004 0001348 277.7408 313.6887 15.63386406  3920"
      },
      "geometry": {
        "type": "Point",
        "coordinates": [
          -22.660737775312914,
          -41.314855967587555
        ]
      }
    }
  ]
}